start=new Date('2022-08-18T00:00:00.000Z').valueOf();
sats=[{"ECCENTRICITY":"0.00017200","INCLINATION":"53.2171","GP_ID":"210408576","MEAN_MOTION_DOT":"-0.00003305","OBJECT_ID":"2022-052E","BSTAR":"-0.00018972000000","OBJECT_NAME":"STARLINK-4012","REF_FRAME":"TEME","NORAD_CAT_ID":"52602","PERIAPSIS":"538.597","PERIOD":"95.438","ARG_OF_PERICENTER":"52.6427","TLE_LINE1":"1 52602U 22052E   22229.66667824 -.00003305  00000-0 -18972-3 0  9991","MEAN_ANOMALY":"116.9015","REV_AT_EPOCH":"130","FILE":"3538809","RA_OF_ASC_NODE":"355.1498","RCS_SIZE":"LARGE","MEAN_ELEMENT_THEORY":"SGP4","DECAY_DATE":null,"MEAN_MOTION_DDOT":"0.0000000000000","LAUNCH_DATE":"2022-05-14","SEMIMAJOR_AXIS":"6917.922","MEAN_MOTION":"15.08826527","COUNTRY_CODE":"US","SITE":"AFETR","APOAPSIS":"540.976","TIME_SYSTEM":"UTC","OBJECT_TYPE":"PAYLOAD","EPOCH":"2022-08-17T16:00:00.999936","TLE_LINE2":"2 52602  53.2171 355.1498 0001720  52.6427 116.9015 15.08826527  1308","CLASSIFICATION_TYPE":"U","ELEMENT_SET_NO":"999","EPHEMERIS_TYPE":"0","CENTER_NAME":"EARTH"},{"BSTAR":"0.00061289000000","OBJECT_NAME":"STARLINK-4016","NORAD_CAT_ID":"52603","REF_FRAME":"TEME","ECCENTRICITY":"0.00018290","OBJECT_ID":"2022-052F","MEAN_MOTION_DOT":"0.00009476","GP_ID":"210409393","INCLINATION":"53.2185","RCS_SIZE":"LARGE","MEAN_ELEMENT_THEORY":"SGP4","RA_OF_ASC_NODE":"355.1404","DECAY_DATE":null,"MEAN_ANOMALY":"195.1538","PERIAPSIS":"538.522","PERIOD":"95.438","ARG_OF_PERICENTER":"54.3516","TLE_LINE1":"1 52603U 22052F   22229.66667824  .00009476  00000-0  61289-3 0  9994","REV_AT_EPOCH":"130","FILE":"3538809","SEMIMAJOR_AXIS":"6917.922","MEAN_MOTION":"15.08826453","MEAN_MOTION_DDOT":"0.0000000000000","LAUNCH_DATE":"2022-05-14","CLASSIFICATION_TYPE":"U","ELEMENT_SET_NO":"999","EPOCH":"2022-08-17T16:00:00.999936","TLE_LINE2":"2 52603  53.2185 355.1404 0001829  54.3516 195.1538 15.08826453  1306","CENTER_NAME":"EARTH","EPHEMERIS_TYPE":"0","SITE":"AFETR","COUNTRY_CODE":"US","OBJECT_TYPE":"PAYLOAD","APOAPSIS":"541.052","TIME_SYSTEM":"UTC"},{"APOAPSIS":"540.933","TIME_SYSTEM":"UTC","OBJECT_TYPE":"PAYLOAD","COUNTRY_CODE":"US","SITE":"AFETR","EPHEMERIS_TYPE":"0","CENTER_NAME":"EARTH","TLE_LINE2":"2 52604  53.2170 355.1355 0001712  45.3021 164.2070 15.08839047  1309","EPOCH":"2022-08-17T16:00:00.999936","ELEMENT_SET_NO":"999","CLASSIFICATION_TYPE":"U","LAUNCH_DATE":"2022-05-14","MEAN_MOTION_DDOT":"0.0000000000000","MEAN_MOTION":"15.08839047","SEMIMAJOR_AXIS":"6917.883","FILE":"3538809","REV_AT_EPOCH":"130","TLE_LINE1":"1 52604U 22052G   22229.66667824  .00011945  00000-0  76732-3 0  9998","PERIAPSIS":"538.564","ARG_OF_PERICENTER":"45.3021","PERIOD":"95.438","MEAN_ANOMALY":"164.2070","DECAY_DATE":null,"RA_OF_ASC_NODE":"355.1355","MEAN_ELEMENT_THEORY":"SGP4","RCS_SIZE":"LARGE","INCLINATION":"53.2170","GP_ID":"210408440","MEAN_MOTION_DOT":"0.00011945","OBJECT_ID":"2022-052G","ECCENTRICITY":"0.00017120","REF_FRAME":"TEME","NORAD_CAT_ID":"52604","OBJECT_NAME":"STARLINK-4013","BSTAR":"0.00076732000000"},{"MEAN_MOTION":"15.08848856","SEMIMAJOR_AXIS":"6917.853","LAUNCH_DATE":"2022-05-14","MEAN_MOTION_DDOT":"0.0000000000000","EPHEMERIS_TYPE":"0","CENTER_NAME":"EARTH","TLE_LINE2":"2 52605  53.2174   0.1496 0001451  58.3942 323.6415 15.08848856  1305","EPOCH":"2022-08-17T16:00:00.999936","CLASSIFICATION_TYPE":"U","ELEMENT_SET_NO":"999","APOAPSIS":"540.722","TIME_SYSTEM":"UTC","OBJECT_TYPE":"PAYLOAD","COUNTRY_CODE":"US","SITE":"AFETR","REF_FRAME":"TEME","NORAD_CAT_ID":"52605","OBJECT_NAME":"STARLINK-4000","BSTAR":"-0.00072715000000","INCLINATION":"53.2174","GP_ID":"210409121","MEAN_MOTION_DOT":"-0.00011845","OBJECT_ID":"2022-052H","ECCENTRICITY":"0.00014510","DECAY_DATE":null,"RA_OF_ASC_NODE":"0.1496","MEAN_ELEMENT_THEORY":"SGP4","RCS_SIZE":"LARGE","FILE":"3538809","REV_AT_EPOCH":"130","TLE_LINE1":"1 52605U 22052H   22229.66667824 -.00011845  00000-0 -72715-3 0  9997","PERIAPSIS":"538.715","ARG_OF_PERICENTER":"58.3942","PERIOD":"95.437","MEAN_ANOMALY":"323.6415"},{"MEAN_MOTION":"15.08836610","SEMIMAJOR_AXIS":"6917.891","LAUNCH_DATE":"2022-05-14","MEAN_MOTION_DDOT":"0.0000000000000","CENTER_NAME":"EARTH","EPHEMERIS_TYPE":"0","CLASSIFICATION_TYPE":"U","ELEMENT_SET_NO":"999","EPOCH":"2022-08-17T16:00:00.999936","TLE_LINE2":"2 52606  53.2179 355.1388 0001666  52.9981 176.5337 15.08836610  1308","OBJECT_TYPE":"PAYLOAD","TIME_SYSTEM":"UTC","APOAPSIS":"540.908","SITE":"AFETR","COUNTRY_CODE":"US","NORAD_CAT_ID":"52606","REF_FRAME":"TEME","BSTAR":"-0.00025715000000","OBJECT_NAME":"STARLINK-3928","OBJECT_ID":"2022-052J","MEAN_MOTION_DOT":"-0.00004378","INCLINATION":"53.2179","GP_ID":"210408985","ECCENTRICITY":"0.00016660","DECAY_DATE":null,"RCS_SIZE":"LARGE","MEAN_ELEMENT_THEORY":"SGP4","RA_OF_ASC_NODE":"355.1388","REV_AT_EPOCH":"130","FILE":"3538809","MEAN_ANOMALY":"176.5337","PERIAPSIS":"538.603","ARG_OF_PERICENTER":"52.9981","PERIOD":"95.438","TLE_LINE1":"1 52606U 22052J   22229.66667824 -.00004378  00000-0 -25715-3 0  9999"},{"RA_OF_ASC_NODE":"0.1443","MEAN_ELEMENT_THEORY":"SGP4","RCS_SIZE":"LARGE","DECAY_DATE":null,"TLE_LINE1":"1 52607U 22052K   22229.66667824 -.00005592  00000-0 -33362-3 0  9996","PERIAPSIS":"538.679","ARG_OF_PERICENTER":"66.4826","PERIOD":"95.438","MEAN_ANOMALY":"355.5021","FILE":"3538809","REV_AT_EPOCH":"130","OBJECT_NAME":"STARLINK-3947","BSTAR":"-0.00033362000000","REF_FRAME":"TEME","NORAD_CAT_ID":"52607","ECCENTRICITY":"0.00015940","GP_ID":"210409257","INCLINATION":"53.2161","MEAN_MOTION_DOT":"-0.00005592","OBJECT_ID":"2022-052K","EPOCH":"2022-08-17T16:00:00.999936","TLE_LINE2":"2 52607  53.2161   0.1443 0001594  66.4826 355.5021 15.08828125  1308","CLASSIFICATION_TYPE":"U","ELEMENT_SET_NO":"999","EPHEMERIS_TYPE":"0","CENTER_NAME":"EARTH","COUNTRY_CODE":"US","SITE":"AFETR","TIME_SYSTEM":"UTC","APOAPSIS":"540.884","OBJECT_TYPE":"PAYLOAD","SEMIMAJOR_AXIS":"6917.917","MEAN_MOTION":"15.08828125","MEAN_MOTION_DDOT":"0.0000000000000","LAUNCH_DATE":"2022-05-14"},{"SEMIMAJOR_AXIS":"6917.912","MEAN_MOTION":"15.08829709","MEAN_MOTION_DDOT":"0.0000000000000","LAUNCH_DATE":"2022-05-14","EPOCH":"2022-08-17T16:00:00.999936","TLE_LINE2":"2 52608  53.2178 355.1380 0001669  47.9030 221.6179 15.08829709  1300","ELEMENT_SET_NO":"999","CLASSIFICATION_TYPE":"U","EPHEMERIS_TYPE":"0","CENTER_NAME":"EARTH","COUNTRY_CODE":"US","SITE":"AFETR","TIME_SYSTEM":"UTC","APOAPSIS":"540.931","OBJECT_TYPE":"PAYLOAD","BSTAR":"-0.00011716000000","OBJECT_NAME":"STARLINK-3979","REF_FRAME":"TEME","NORAD_CAT_ID":"52608","ECCENTRICITY":"0.00016690","INCLINATION":"53.2178","GP_ID":"210408849","OBJECT_ID":"2022-052L","MEAN_MOTION_DOT":"-0.00002152","RA_OF_ASC_NODE":"355.1380","RCS_SIZE":"LARGE","MEAN_ELEMENT_THEORY":"SGP4","DECAY_DATE":null,"PERIOD":"95.438","PERIAPSIS":"538.622","ARG_OF_PERICENTER":"47.9030","TLE_LINE1":"1 52608U 22052L   22229.66667824 -.00002152  00000-0 -11716-3 0  9995","MEAN_ANOMALY":"221.6179","REV_AT_EPOCH":"130","FILE":"3538809"},{"SEMIMAJOR_AXIS":"6917.846","MEAN_MOTION":"15.08851280","MEAN_MOTION_DDOT":"0.0000000000000","LAUNCH_DATE":"2022-05-14","CLASSIFICATION_TYPE":"U","ELEMENT_SET_NO":"999","TLE_LINE2":"2 52609  53.2191 355.1484 0001774  51.3255 252.9432 15.08851280  1304","EPOCH":"2022-08-17T16:00:00.999936","CENTER_NAME":"EARTH","EPHEMERIS_TYPE":"0","SITE":"AFETR","COUNTRY_CODE":"US","OBJECT_TYPE":"PAYLOAD","APOAPSIS":"540.938","TIME_SYSTEM":"UTC","OBJECT_NAME":"STARLINK-3997","BSTAR":"-0.00084880000000","NORAD_CAT_ID":"52609","REF_FRAME":"TEME","ECCENTRICITY":"0.00017740","OBJECT_ID":"2022-052M","MEAN_MOTION_DOT":"-0.00013776","INCLINATION":"53.2191","GP_ID":"210408713","MEAN_ELEMENT_THEORY":"SGP4","RCS_SIZE":"LARGE","RA_OF_ASC_NODE":"355.1484","DECAY_DATE":null,"MEAN_ANOMALY":"252.9432","TLE_LINE1":"1 52609U 22052M   22229.66667824 -.00013776  00000-0 -84880-3 0  9992","ARG_OF_PERICENTER":"51.3255","PERIAPSIS":"538.484","PERIOD":"95.437","FILE":"3538809","REV_AT_EPOCH":"130"},{"ARG_OF_PERICENTER":"56.9446","PERIAPSIS":"538.614","PERIOD":"95.436","TLE_LINE1":"1 52610U 22052N   22229.66667824 -.00046481  00000-0 -29192-2 0  9997","MEAN_ANOMALY":"345.0533","REV_AT_EPOCH":"130","FILE":"3538809","RA_OF_ASC_NODE":"0.1469","RCS_SIZE":"LARGE","MEAN_ELEMENT_THEORY":"SGP4","DECAY_DATE":null,"ECCENTRICITY":"0.00015180","INCLINATION":"53.2164","GP_ID":"210408577","MEAN_MOTION_DOT":"-0.00046481","OBJECT_ID":"2022-052N","BSTAR":"-0.00291920000000","OBJECT_NAME":"STARLINK-3998","REF_FRAME":"TEME","NORAD_CAT_ID":"52610","COUNTRY_CODE":"US","SITE":"AFETR","APOAPSIS":"540.714","TIME_SYSTEM":"UTC","OBJECT_TYPE":"PAYLOAD","TLE_LINE2":"2 52610  53.2164   0.1469 0001518  56.9446 345.0533 15.08866536  1301","EPOCH":"2022-08-17T16:00:00.999936","CLASSIFICATION_TYPE":"U","ELEMENT_SET_NO":"999","EPHEMERIS_TYPE":"0","CENTER_NAME":"EARTH","MEAN_MOTION_DDOT":"0.0000000000000","LAUNCH_DATE":"2022-05-14","SEMIMAJOR_AXIS":"6917.799","MEAN_MOTION":"15.08866536"},{"MEAN_MOTION":"15.08828597","SEMIMAJOR_AXIS":"6917.915","LAUNCH_DATE":"2022-05-14","MEAN_MOTION_DDOT":"0.0000000000000","CENTER_NAME":"EARTH","EPHEMERIS_TYPE":"0","CLASSIFICATION_TYPE":"U","ELEMENT_SET_NO":"999","TLE_LINE2":"2 52611  53.2166   0.1457 0001886  57.0594  24.9801 15.08828597  1301","EPOCH":"2022-08-17T16:00:00.999936","OBJECT_TYPE":"PAYLOAD","APOAPSIS":"541.085","TIME_SYSTEM":"UTC","SITE":"AFETR","COUNTRY_CODE":"US","NORAD_CAT_ID":"52611","REF_FRAME":"TEME","BSTAR":"-0.00006466800000","OBJECT_NAME":"STARLINK-3980","MEAN_MOTION_DOT":"-0.00001317","OBJECT_ID":"2022-052P","GP_ID":"210409394","INCLINATION":"53.2166","ECCENTRICITY":"0.00018860","DECAY_DATE":null,"RCS_SIZE":"LARGE","MEAN_ELEMENT_THEORY":"SGP4","RA_OF_ASC_NODE":"0.1457","REV_AT_EPOCH":"130","FILE":"3538809","MEAN_ANOMALY":"24.9801","PERIOD":"95.438","PERIAPSIS":"538.476","ARG_OF_PERICENTER":"57.0594","TLE_LINE1":"1 52611U 22052P   22229.66667824 -.00001317  00000-0 -64668-4 0  9996"}];
